<?xml version="1.0" encoding="UTF-8"?>
<kml xmlns="http://www.opengis.net/kml/2.2">
  <Document>
    <name>Untitled layer</name>
    <Style id="poly-000000-1200-77-nodesc-normal">
      <LineStyle>
        <color>ff000000</color>
        <width>1.2</width>
      </LineStyle>
      <PolyStyle>
        <color>4d000000</color>
        <fill>1</fill>
        <outline>1</outline>
      </PolyStyle>
      <BalloonStyle>
        <text><![CDATA[<h3>$[name]</h3>]]></text>
      </BalloonStyle>
    </Style>
    <Style id="poly-000000-1200-77-nodesc-highlight">
      <LineStyle>
        <color>ff000000</color>
        <width>1.8</width>
      </LineStyle>
      <PolyStyle>
        <color>4d000000</color>
        <fill>1</fill>
        <outline>1</outline>
      </PolyStyle>
      <BalloonStyle>
        <text><![CDATA[<h3>$[name]</h3>]]></text>
      </BalloonStyle>
    </Style>
    <StyleMap id="poly-000000-1200-77-nodesc">
      <Pair>
        <key>normal</key>
        <styleUrl>#poly-000000-1200-77-nodesc-normal</styleUrl>
      </Pair>
      <Pair>
        <key>highlight</key>
        <styleUrl>#poly-000000-1200-77-nodesc-highlight</styleUrl>
      </Pair>
    </StyleMap>
    <Placemark>
      <name>Polygon 3</name>
      <styleUrl>#poly-000000-1200-77-nodesc</styleUrl>
      <Polygon>
        <outerBoundaryIs>
          <LinearRing>
            <tessellate>1</tessellate>
            <coordinates>
              -124.5295183,42.0108291,0
              -124.9689714,39.751855,0
              -122.0685808,36.1492899,0
              -121.1017839,34.2098639,0
              -117.8498308,33.1125862,0
              -117.6740496,32.3733428,0
              -111.6974871,31.0273929,0
              -108.9728777,31.0273929,0
              -107.4787371,31.47821,0
              -104.8420183,29.2795634,0
              -103.0842058,28.7415254,0
              -102.1174089,29.5857505,0
              -101.0627214,28.8185592,0
              -99.8322527,26.246981,0
              -96.9318621,24.9789543,0
              -96.4045183,26.4045314,0
              -93.9435808,29.0493188,0
              -90.1642839,28.7415254,0
              -88.0549089,29.7384971,0
              -84.3635027,28.7415254,0
              -80.6720964,24.2598526,0
              -79.4416277,25.77305,0
              -80.5842058,31.1026785,0
              -76.1896746,34.0643704,0
              -73.8166277,40.6246822,0
              -124.5295183,42.0108291,0
            </coordinates>
          </LinearRing>
        </outerBoundaryIs>
      </Polygon>
    </Placemark>
  </Document>
</kml>
